[{"OBJECT_NAME":"SDA_1678","OBJECT_ID":"2025-230Q","EPOCH":"2026-03-09T17:22:06.092832","MEAN_MOTION":13.85535702,"ECCENTRICITY":0.00045667,"INCLINATION":81.3007,"RA_OF_ASC_NODE":303.8258,"ARG_OF_PERICENTER":119.3929,"MEAN_ANOMALY":240.7685,"EPHEMERIS_TYPE":0,"CLASSIFICATION_TYPE":"U","NORAD_CAT_ID":65988,"ELEMENT_SET_NO":999,"REV_AT_EPOCH":2005,"BSTAR":0.00018640511,"MEAN_MOTION_DOT":2.25e-6,"MEAN_MOTION_DDOT":0},{"OBJECT_NAME":"THORAD AGENA D DEB","OBJECT_ID":"1970-025AL","EPOCH":"2026-03-09T09:07:08.243328","MEAN_MOTION":13.90483695,"ECCENTRICITY":0.00318655,"INCLINATION":99.6065,"RA_OF_ASC_NODE":219.4555,"ARG_OF_PERICENTER":129.777,"MEAN_ANOMALY":259.7455,"EPHEMERIS_TYPE":0,"CLASSIFICATION_TYPE":"U","NORAD_CAT_ID":4652,"ELEMENT_SET_NO":999,"REV_AT_EPOCH":80335,"BSTAR":0.0010864721,"MEAN_MOTION_DOT":1.309e-5,"MEAN_MOTION_DDOT":0}]
